start=new Date('2022-03-16T00:00:00.000Z').valueOf();
sats=[{"RA_OF_ASC_NODE":"262.8219","MEAN_ANOMALY":"309.0079","ARG_OF_PERICENTER":"51.1046","DECAY_DATE":null,"SEMIMAJOR_AXIS":"6925.357","CENTER_NAME":"EARTH","OBJECT_ID":"2021-017K","MEAN_MOTION_DOT":"0.00000143","APOAPSIS":"548.273","FILE":"3360930","EPHEMERIS_TYPE":"0","OBJECT_NAME":"STARLINK-2141","ELEMENT_SET_NO":"999","TLE_LINE2":"2 47731  53.0556 262.8219 0001517  51.1046 309.0079 15.06397106 58457","PERIOD":"95.592","SITE":"AFETR","TLE_LINE1":"1 47731U 21017K   22074.81263565  .00000143  00000-0  28490-4 0  9999","CLASSIFICATION_TYPE":"U","INCLINATION":"53.0556","OBJECT_TYPE":"PAYLOAD","TIME_SYSTEM":"UTC","COUNTRY_CODE":"US","MEAN_MOTION_DDOT":"0.0000000000000","EPOCH":"2022-03-15T19:30:11.720160","PERIAPSIS":"546.172","MEAN_ELEMENT_THEORY":"SGP4","ECCENTRICITY":"0.00015170","RCS_SIZE":"LARGE","GP_ID":"198846564","MEAN_MOTION":"15.06397106","REF_FRAME":"TEME","BSTAR":"0.00002849000000","LAUNCH_DATE":"2021-03-04","REV_AT_EPOCH":"5845","NORAD_CAT_ID":"47731"},{"EPOCH":"2022-03-15T11:55:40.351584","PERIAPSIS":"546.364","MEAN_ELEMENT_THEORY":"SGP4","COUNTRY_CODE":"US","MEAN_MOTION_DDOT":"0.0000000000000","REV_AT_EPOCH":"5959","NORAD_CAT_ID":"47732","ECCENTRICITY":"0.00012120","RCS_SIZE":"LARGE","GP_ID":"198847314","REF_FRAME":"TEME","MEAN_MOTION":"15.06403203","BSTAR":"0.00017783000000","LAUNCH_DATE":"2021-03-04","CLASSIFICATION_TYPE":"U","INCLINATION":"53.0555","OBJECT_TYPE":"PAYLOAD","TIME_SYSTEM":"UTC","MEAN_MOTION_DOT":"0.00002369","APOAPSIS":"548.043","CENTER_NAME":"EARTH","OBJECT_ID":"2021-017L","TLE_LINE1":"1 47732U 21017L   22074.49699481  .00002369  00000-0  17783-3 0  9998","EPHEMERIS_TYPE":"0","FILE":"3360930","OBJECT_NAME":"STARLINK-2142","ELEMENT_SET_NO":"999","PERIOD":"95.592","TLE_LINE2":"2 47732  53.0555 179.2241 0001212  91.9328 268.1800 15.06403203 59599","SITE":"AFETR","ARG_OF_PERICENTER":"91.9328","RA_OF_ASC_NODE":"179.2241","MEAN_ANOMALY":"268.1800","SEMIMAJOR_AXIS":"6925.339","DECAY_DATE":null},{"CENTER_NAME":"EARTH","OBJECT_ID":"2021-017M","MEAN_MOTION_DOT":"-0.00001277","APOAPSIS":"548.441","ELEMENT_SET_NO":"999","FILE":"3360930","OBJECT_NAME":"STARLINK-2143","EPHEMERIS_TYPE":"0","SITE":"AFETR","PERIOD":"95.593","TLE_LINE2":"2 47733  53.0524 272.5668 0001715  58.4544 301.6612 15.06386975 58366","TLE_LINE1":"1 47733U 21017M   22074.86701541 -.00001277  00000-0 -66836-4 0  9994","RA_OF_ASC_NODE":"272.5668","MEAN_ANOMALY":"301.6612","ARG_OF_PERICENTER":"58.4544","DECAY_DATE":null,"SEMIMAJOR_AXIS":"6925.388","COUNTRY_CODE":"US","MEAN_MOTION_DDOT":"0.0000000000000","PERIAPSIS":"546.066","MEAN_ELEMENT_THEORY":"SGP4","EPOCH":"2022-03-15T20:48:30.131424","GP_ID":"198848063","MEAN_MOTION":"15.06386975","REF_FRAME":"TEME","ECCENTRICITY":"0.00017150","RCS_SIZE":"LARGE","LAUNCH_DATE":"2021-03-04","BSTAR":"-0.00006683600000","REV_AT_EPOCH":"5836","NORAD_CAT_ID":"47733","CLASSIFICATION_TYPE":"U","INCLINATION":"53.0524","TIME_SYSTEM":"UTC","OBJECT_TYPE":"PAYLOAD"},{"CLASSIFICATION_TYPE":"U","TIME_SYSTEM":"UTC","OBJECT_TYPE":"PAYLOAD","INCLINATION":"53.0533","PERIAPSIS":"546.238","MEAN_ELEMENT_THEORY":"SGP4","EPOCH":"2022-03-15T19:40:49.303776","MEAN_MOTION_DDOT":"0.0000000000000","COUNTRY_CODE":"US","NORAD_CAT_ID":"47734","REV_AT_EPOCH":"5846","LAUNCH_DATE":"2021-03-04","BSTAR":"0.00006696500000","GP_ID":"198846814","REF_FRAME":"TEME","MEAN_MOTION":"15.06392286","RCS_SIZE":"LARGE","ECCENTRICITY":"0.00014430","ARG_OF_PERICENTER":"60.8193","MEAN_ANOMALY":"299.2940","RA_OF_ASC_NODE":"262.7888","SEMIMAJOR_AXIS":"6925.372","DECAY_DATE":null,"APOAPSIS":"548.237","MEAN_MOTION_DOT":"0.00000716","OBJECT_ID":"2021-017N","CENTER_NAME":"EARTH","TLE_LINE1":"1 47734U 21017N   22074.82001509  .00000716  00000-0  66965-4 0  9996","SITE":"AFETR","TLE_LINE2":"2 47734  53.0533 262.7888 0001443  60.8193 299.2940 15.06392286 58466","PERIOD":"95.593","ELEMENT_SET_NO":"999","EPHEMERIS_TYPE":"0","FILE":"3360930","OBJECT_NAME":"STARLINK-2144"},{"SEMIMAJOR_AXIS":"6925.351","DECAY_DATE":null,"ARG_OF_PERICENTER":"52.4505","RA_OF_ASC_NODE":"188.3648","MEAN_ANOMALY":"307.6653","TLE_LINE1":"1 47735U 21017P   22074.68774717 -.00000807  00000-0 -35255-4 0  9990","EPHEMERIS_TYPE":"0","FILE":"3360930","OBJECT_NAME":"STARLINK-2146","ELEMENT_SET_NO":"999","PERIOD":"95.592","TLE_LINE2":"2 47735  53.0544 188.3648 0001868  52.4505 307.6653 15.06399113 59474","SITE":"AFETR","MEAN_MOTION_DOT":"-0.00000807","APOAPSIS":"548.510","CENTER_NAME":"EARTH","OBJECT_ID":"2021-017P","INCLINATION":"53.0544","OBJECT_TYPE":"PAYLOAD","TIME_SYSTEM":"UTC","CLASSIFICATION_TYPE":"U","REV_AT_EPOCH":"5947","NORAD_CAT_ID":"47735","ECCENTRICITY":"0.00018680","RCS_SIZE":"LARGE","GP_ID":"198847064","MEAN_MOTION":"15.06399113","REF_FRAME":"TEME","BSTAR":"-0.00003525500000","LAUNCH_DATE":"2021-03-04","EPOCH":"2022-03-15T16:30:21.355488","PERIAPSIS":"545.923","MEAN_ELEMENT_THEORY":"SGP4","COUNTRY_CODE":"US","MEAN_MOTION_DDOT":"0.0000000000000"},{"SEMIMAJOR_AXIS":"6925.375","DECAY_DATE":null,"ARG_OF_PERICENTER":"62.6136","MEAN_ANOMALY":"297.5024","RA_OF_ASC_NODE":"252.9353","TLE_LINE1":"1 47736U 21017Q   22074.78775664 -.00000485  00000-0 -13630-4 0  9999","SITE":"AFETR","PERIOD":"95.593","TLE_LINE2":"2 47736  53.0541 252.9353 0001679  62.6136 297.5024 15.06391390 58631","ELEMENT_SET_NO":"999","FILE":"3360930","OBJECT_NAME":"STARLINK-2147","EPHEMERIS_TYPE":"0","APOAPSIS":"548.403","MEAN_MOTION_DOT":"-0.00000485","OBJECT_ID":"2021-017Q","CENTER_NAME":"EARTH","TIME_SYSTEM":"UTC","OBJECT_TYPE":"PAYLOAD","INCLINATION":"53.0541","CLASSIFICATION_TYPE":"U","NORAD_CAT_ID":"47736","REV_AT_EPOCH":"5863","LAUNCH_DATE":"2021-03-04","BSTAR":"-0.00001363000000","REF_FRAME":"TEME","GP_ID":"198847814","MEAN_MOTION":"15.06391390","RCS_SIZE":"LARGE","ECCENTRICITY":"0.00016790","MEAN_ELEMENT_THEORY":"SGP4","PERIAPSIS":"546.077","EPOCH":"2022-03-15T18:54:22.173696","MEAN_MOTION_DDOT":"0.0000000000000","COUNTRY_CODE":"US"},{"RA_OF_ASC_NODE":"185.7182","MEAN_ANOMALY":"313.8065","ARG_OF_PERICENTER":"46.3037","DECAY_DATE":null,"SEMIMAJOR_AXIS":"6852.716","CENTER_NAME":"EARTH","OBJECT_ID":"2021-017R","MEAN_MOTION_DOT":"0.00000214","APOAPSIS":"475.432","ELEMENT_SET_NO":"999","OBJECT_NAME":"STARLINK-2148","FILE":"3360930","EPHEMERIS_TYPE":"0","SITE":"AFETR","PERIOD":"94.092","TLE_LINE2":"2 47737  53.0558 185.7182 0001243  46.3037 313.8065 15.30413199 59557","TLE_LINE1":"1 47737U 21017R   22074.56657327  .00000214  00000-0  19269-4 0  9993","CLASSIFICATION_TYPE":"U","INCLINATION":"53.0558","TIME_SYSTEM":"UTC","OBJECT_TYPE":"PAYLOAD","COUNTRY_CODE":"US","MEAN_MOTION_DDOT":"0.0000000000000","PERIAPSIS":"473.729","MEAN_ELEMENT_THEORY":"SGP4","EPOCH":"2022-03-15T13:35:51.930528","MEAN_MOTION":"15.30413199","GP_ID":"198847564","REF_FRAME":"TEME","RCS_SIZE":"LARGE","ECCENTRICITY":"0.00012430","LAUNCH_DATE":"2021-03-04","BSTAR":"0.00001926900000","REV_AT_EPOCH":"5955","NORAD_CAT_ID":"47737"},{"NORAD_CAT_ID":"47738","REV_AT_EPOCH":"5863","LAUNCH_DATE":"2021-03-04","BSTAR":"0.00002131200000","MEAN_MOTION":"15.06390129","GP_ID":"198846315","REF_FRAME":"TEME","ECCENTRICITY":"0.00014530","RCS_SIZE":"LARGE","MEAN_ELEMENT_THEORY":"SGP4","PERIAPSIS":"546.238","EPOCH":"2022-03-15T19:15:36.540864","MEAN_MOTION_DDOT":"0.0000000000000","COUNTRY_CODE":"US","TIME_SYSTEM":"UTC","OBJECT_TYPE":"PAYLOAD","INCLINATION":"53.0535","CLASSIFICATION_TYPE":"U","TLE_LINE1":"1 47738U 21017S   22074.80250626  .00000036  00000-0  21312-4 0  9996","SITE":"AFETR","TLE_LINE2":"2 47738  53.0535 252.8691 0001453  80.3410 279.7743 15.06390129 58631","PERIOD":"95.593","ELEMENT_SET_NO":"999","FILE":"3360930","OBJECT_NAME":"STARLINK-2149","EPHEMERIS_TYPE":"0","APOAPSIS":"548.250","MEAN_MOTION_DOT":"0.00000036","OBJECT_ID":"2021-017S","CENTER_NAME":"EARTH","SEMIMAJOR_AXIS":"6925.379","DECAY_DATE":null,"ARG_OF_PERICENTER":"80.3410","MEAN_ANOMALY":"279.7743","RA_OF_ASC_NODE":"252.8691"},{"BSTAR":"-0.00011378000000","LAUNCH_DATE":"2021-03-04","RCS_SIZE":"LARGE","ECCENTRICITY":"0.00014860","GP_ID":"198846565","MEAN_MOTION":"15.06386314","REF_FRAME":"TEME","NORAD_CAT_ID":"47739","REV_AT_EPOCH":"5829","MEAN_MOTION_DDOT":"0.0000000000000","COUNTRY_CODE":"US","EPOCH":"2022-03-15T20:23:56.386752","PERIAPSIS":"546.226","MEAN_ELEMENT_THEORY":"SGP4","OBJECT_TYPE":"PAYLOAD","TIME_SYSTEM":"UTC","INCLINATION":"53.0540","CLASSIFICATION_TYPE":"U","PERIOD":"95.593","TLE_LINE2":"2 47739  53.0540 277.6533 0001486  63.0254 297.0887 15.06386314 58293","SITE":"AFETR","EPHEMERIS_TYPE":"0","FILE":"3360930","OBJECT_NAME":"STARLINK-2150","ELEMENT_SET_NO":"999","TLE_LINE1":"1 47739U 21017T   22074.84995818 -.00001975  00000-0 -11378-3 0  9995","OBJECT_ID":"2021-017T","CENTER_NAME":"EARTH","APOAPSIS":"548.285","MEAN_MOTION_DOT":"-0.00001975","DECAY_DATE":null,"SEMIMAJOR_AXIS":"6925.391","MEAN_ANOMALY":"297.0887","RA_OF_ASC_NODE":"277.6533","ARG_OF_PERICENTER":"63.0254"},{"MEAN_MOTION_DDOT":"0.0000000000000","COUNTRY_CODE":"US","PERIAPSIS":"546.191","MEAN_ELEMENT_THEORY":"SGP4","EPOCH":"2022-03-15T19:56:45.259296","LAUNCH_DATE":"2021-03-04","BSTAR":"0.00010061000000","GP_ID":"198847315","MEAN_MOTION":"15.06387716","REF_FRAME":"TEME","RCS_SIZE":"LARGE","ECCENTRICITY":"0.00015310","NORAD_CAT_ID":"47740","REV_AT_EPOCH":"5849","CLASSIFICATION_TYPE":"U","TIME_SYSTEM":"UTC","OBJECT_TYPE":"PAYLOAD","INCLINATION":"53.0539","OBJECT_ID":"2021-017U","CENTER_NAME":"EARTH","APOAPSIS":"548.311","MEAN_MOTION_DOT":"0.00001217","SITE":"AFETR","TLE_LINE2":"2 47740  53.0539 262.7375 0001531  67.7786 292.3366 15.06387716 58493","PERIOD":"95.593","ELEMENT_SET_NO":"999","FILE":"3360930","EPHEMERIS_TYPE":"0","OBJECT_NAME":"STARLINK-2152","TLE_LINE1":"1 47740U 21017U   22074.83107939  .00001217  00000-0  10061-3 0  9990","MEAN_ANOMALY":"292.3366","RA_OF_ASC_NODE":"262.7375","ARG_OF_PERICENTER":"67.7786","DECAY_DATE":null,"SEMIMAJOR_AXIS":"6925.386"}];
